NORAD_CAT_ID,OBJECT_NAME,OBJECT_TYPE,EPOCH,MEAN_MOTION,ECCENTRICITY,INCLINATION,RA_OF_ASC_NODE,ARG_OF_PERICENTER,MEAN_ANOMALY,BSTAR,MEAN_MOTION_DOT,MEAN_MOTION_DDOT,TLE_LINE0,TLE_LINE1,TLE_LINE2,SEMIMAJOR_AXIS,PERIOD,APOGEE,PERIGEE,DECAYED
49756.0,STARLINK-3207,PAYLOAD,2022-07-11 13:33:36,15.08821965,0.0001556,53.2168,21.7098,73.8105,286.3059,8.209299999999999e-05,1.018e-05,0.0,0 STARLINK-3207,1 49756U 21115AJ  22192.56500333  .00001018  00000-0  82093-4 0  9998,2 49756  53.2168  21.7098 0001556  73.8105 286.3059 15.08821965 33819,6917.936,95.439,540.877,538.724,0.0
49756.0,STARLINK-3207,PAYLOAD,2022-07-11 19:55:08,15.08824298,0.0001424,53.2171,20.5205,65.8244,294.2896,0.00016386,2.32e-05,0.0,0 STARLINK-3207,1 49756U 21115AJ  22192.82996280  .00002320  00000-0  16386-3 0  9995,2 49756  53.2171  20.5205 0001424  65.8244 294.2896 15.08824298 34965,6917.928000000001,95.439,540.778,538.808,0.0
49756.0,STARLINK-3207,PAYLOAD,2022-07-12 11:48:59,15.08838167,0.0001444,53.2175,17.5471,70.9409,289.1739,0.00030774,4.613e-05,0.0,0 STARLINK-3207,1 49756U 21115AJ  22193.49235746  .00004613  00000-0  30774-3 0  9996,2 49756  53.2175  17.5471 0001444  70.9409 289.1739 15.08838167 35063,6917.886,95.438,540.75,538.752,0.0
49756.0,STARLINK-3207,PAYLOAD,2022-07-12 19:45:54,15.08851104,0.0001429,53.2173,16.0596,69.5714,290.5432,0.00030559,4.58e-05,0.0,0 STARLINK-3207,1 49756U 21115AJ  22193.82355193  .00004580  00000-0  30559-3 0  9996,2 49756  53.2173  16.0596 0001429  69.5714 290.5432 15.08851104 35117,6917.846,95.437,540.7,538.7230000000002,0.0
49756.0,STARLINK-3207,PAYLOAD,2022-07-12 21:21:17,15.08854478,0.0001431,53.2173,15.7621,69.514,290.6006,0.00033857,5.107e-05,0.0,0 STARLINK-3207,1 49756U 21115AJ  22193.88979001  .00005107  00000-0  33857-3 0  9992,2 49756  53.2173  15.7621 0001431  69.5140 290.6006 15.08854478 34011,6917.8359999999975,95.437,540.691,538.711,0.0
49756.0,STARLINK-3207,PAYLOAD,2022-07-13 11:39:45,15.08859904,0.000147,53.2164,13.0859,67.857,292.2578,0.00029407,4.398e-05,0.0,0 STARLINK-3207,1 49756U 21115AJ  22194.48594903  .00004398  00000-0  29407-3 0  9990,2 49756  53.2164  13.0859 0001470  67.8570 292.2578 15.08859904 34107,6917.82,95.436,540.701,538.668,0.0
49756.0,STARLINK-3207,PAYLOAD,2022-07-13 19:36:42,15.0884844,0.0001457,53.2164,11.5988,68.3102,291.8045,6.260699999999999e-05,7.09e-06,0.0,0 STARLINK-3207,1 49756U 21115AJ  22194.81715281  .00000709  00000-0  62607-4 0  9993,2 49756  53.2164  11.5988 0001457  68.3102 291.8045 15.08848440 35260,6917.855,95.437,540.7280000000002,538.712,0.0
49756.0,STARLINK-3207,PAYLOAD,2022-07-14 05:09:01,15.08839551,0.0001483,53.2165,9.8145,69.7192,290.396,-0.00010137,-1.901e-05,0.0,0 STARLINK-3207,1 49756U 21115AJ  22195.21459606 -.00001901  00000-0 -10137-3 0  9991,2 49756  53.2165   9.8145 0001483  69.7192 290.3960 15.08839551 35329,6917.882,95.438,540.773,538.721,0.0
49756.0,STARLINK-3207,PAYLOAD,2022-07-14 11:30:33,15.08843675,0.0001471,53.2165,8.6252,67.2762,292.8385,-9.9726e-05,-1.875e-05,0.0,0 STARLINK-3207,1 49756U 21115AJ  22195.47955329 -.00001875  00000-0 -99726-4 0  9994,2 49756  53.2165   8.6252 0001471  67.2762 292.8385 15.08843675 34259,6917.869000000002,95.437,540.752,538.717,0.0
49756.0,STARLINK-3207,PAYLOAD,2022-07-14 17:52:06,15.08831427,0.0001474,53.2163,7.4359,63.8249,296.2895,-0.00026367,-4.481e-05,0.0,0 STARLINK-3207,1 49756U 21115AJ  22195.74452020 -.00004481  00000-0 -26367-3 0  9990,2 49756  53.2163   7.4359 0001474  63.8249 296.2895 15.08831427 34297,6917.906999999997,95.438,540.7909999999998,538.752,0.0
49756.0,STARLINK-3207,PAYLOAD,2022-07-15 11:21:21,15.0883358,0.0001413,53.2168,4.1651,63.2775,296.8361,-2.1755e-05,-6.34e-06,0.0,0 STARLINK-3207,1 49756U 21115AJ  22196.47316362 -.00000634  00000-0 -21755-4 0  9992,2 49756  53.2168   4.1651 0001413  63.2775 296.8361 15.08833580 35514,6917.9,95.438,540.743,538.788,0.0
49756.0,STARLINK-3207,PAYLOAD,2022-07-15 19:18:17,15.08835144,0.0001773,53.216,2.6773,69.5516,290.5666,0.00027804,4.139e-05,0.0,0 STARLINK-3207,1 49756U 21115AJ  22196.80436797  .00004139  00000-0  27804-3 0  9996,2 49756  53.2160   2.6773 0001773  69.5516 290.5666 15.08835144 34454,6917.895,95.438,540.987,538.534,0.0
49756.0,STARLINK-3207,PAYLOAD,2022-07-16 11:12:07,15.08857923,0.0001506999999999,53.2168,359.704,65.5948,294.5202,0.00043897,6.709e-05,0.0,0 STARLINK-3207,1 49756U 21115AJ  22197.46675842  .00006709  00000-0  43897-3 0  9990,2 49756  53.2168 359.7040 0001507  65.5948 294.5202 15.08857923 35668,6917.826,95.436,540.7330000000002,538.648,0.0
49756.0,STARLINK-3207,PAYLOAD,2022-07-16 19:09:03,15.08858982,0.0001548,53.217,358.2168,65.6887,294.4266,0.00045547,6.972e-05,0.0,0 STARLINK-3207,1 49756U 21115AJ  22197.79795855  .00006972  00000-0  45547-3 0  9999,2 49756  53.2170 358.2168 0001548  65.6887 294.4266 15.08858982 34602,6917.821999999999,95.436,540.758,538.616,0.0
49756.0,STARLINK-3207,PAYLOAD,2022-07-17 11:02:54,15.08856286,0.0001628,53.217,355.2436,66.961,293.1554,0.00021485,3.134e-05,0.0,0 STARLINK-3207,1 49756U 21115AJ  22198.46035317  .00003134  00000-0  21485-3 0  9996,2 49756  53.2170 355.2436 0001628  66.9610 293.1554 15.08856286 35819,6917.831,95.437,540.822,538.569,0.0
49756.0,STARLINK-3207,PAYLOAD,2022-07-17 12:38:17,15.08854323,0.0001599,53.2169,354.9462,66.2287,293.8872,0.00015656,2.205e-05,0.0,0 STARLINK-3207,1 49756U 21115AJ  22198.52659304  .00002205  00000-0  15656-3 0  9992,2 49756  53.2169 354.9462 0001599  66.2287 293.8872 15.08854323 34710,6917.837,95.437,540.808,538.595,0.0
49756.0,STARLINK-3207,PAYLOAD,2022-07-17 18:59:50,15.08854179,0.0001524,53.2172,353.7571,65.7611,294.3540000000001,0.00014991,2.1e-05,0.0,0 STARLINK-3207,1 49756U 21115AJ  22198.79155140  .00002100  00000-0  14991-3 0  9995,2 49756  53.2172 353.7571 0001524  65.7611 294.3540 15.08854179 34756,6917.837,95.437,540.756,538.648,0.0
49756.0,STARLINK-3207,PAYLOAD,2022-07-18 02:56:46,15.08840686,0.0001561,53.2169,352.27,66.2912,293.8243,-7.471399999999999e-05,-1.477e-05,0.0,0 STARLINK-3207,1 49756U 21115AJ  22199.12275537 -.00001477  00000-0 -74714-4 0  9994,2 49756  53.2169 352.2700 0001561  66.2912 293.8243 15.08840686 35912,6917.878000000002,95.438,540.823,538.663,0.0
49756.0,STARLINK-3207,PAYLOAD,2022-07-18 18:50:38,15.08827225,0.0001554,53.2168,349.2967,66.484,293.6315,-0.00015739,-2.791e-05,0.0,0 STARLINK-3207,1 49756U 21115AJ  22199.78516435 -.00002791  00000-0 -15739-3 0  9992,2 49756  53.2168 349.2967 0001554  66.4840 293.6315 15.08827225 36010,6917.919,95.438,540.859,538.7090000000002,0.0
49756.0,STARLINK-3207,PAYLOAD,2022-07-19 18:41:25,15.08850623,0.0001611,53.2168,344.8362,63.8233,296.2925,0.00058759,9.079e-05,0.0,0 STARLINK-3207,1 49756U 21115AJ  22200.77876359  .00009079  00000-0  58759-3 0  9991,2 49756  53.2168 344.8362 0001611  63.8233 296.2925 15.08850623 36161,6917.848000000001,95.437,540.827,538.5980000000002,0.0
49756.0,STARLINK-3207,PAYLOAD,2022-07-20 02:38:21,15.08842525,0.0001545,53.2162,343.3492,69.4135,290.7023,0.00030999,4.649e-05,0.0,0 STARLINK-3207,1 49756U 21115AJ  22201.10996768  .00004649  00000-0  30999-3 0  9990,2 49756  53.2162 343.3492 0001545  69.4135 290.7023 15.08842525 36218,6917.873000000001,95.437,540.806,538.669,0.0
49756.0,STARLINK-3207,PAYLOAD,2022-07-20 13:46:02,15.08856986,0.0001422,53.2158,341.2672,61.7148,298.3988,0.00056252,8.68e-05,0.0,0 STARLINK-3207,1 49756U 21115AJ  22201.57364086  .00008680  00000-0  56252-3 0  9992,2 49756  53.2158 341.2672 0001422  61.7148 298.3988 15.08856986 35177,6917.828,95.436,540.677,538.71,0.0
49756.0,STARLINK-3207,PAYLOAD,2022-07-20 16:56:48,15.088440599999998,0.0001446,53.216,340.6724,65.7746,294.3397,4.743399999999999e-05,4.67e-06,0.0,0 STARLINK-3207,1 49756U 21115AJ  22201.70612224  .00000467  00000-0  47434-4 0  9995,2 49756  53.2160 340.6724 0001446  65.7746 294.3397 15.08844060 35197,6917.868,95.437,540.7330000000002,538.7330000000002,0.0
49756.0,STARLINK-3207,PAYLOAD,2022-07-21 08:50:40,15.08845751,0.0001415,53.2155,337.6997,69.0348,291.0796,0.00038958,5.919e-05,0.0,0 STARLINK-3207,1 49756U 21115AJ  22202.36852177  .00005919  00000-0  38958-3 0  9998,2 49756  53.2155 337.6997 0001415  69.0348 291.0796 15.08845751 36400,6917.863,95.437,540.707,538.749,0.0
49756.0,STARLINK-3207,PAYLOAD,2022-07-21 15:12:13,15.08835093,0.0001361999999999,53.2162,336.5082,69.8446,290.2693,1.7548e-05,-9e-08,0.0,0 STARLINK-3207,1 49756U 21115AJ  22202.63348453 -.00000009  00000-0  17548-4 0  9994,2 49756  53.2162 336.5082 0001362  69.8446 290.2693 15.08835093 35335,6917.895,95.438,540.703,538.818,0.0
49756.0,STARLINK-3207,PAYLOAD,2022-07-22 02:19:55,15.08833209,0.0001595,53.2154,334.4284,68.2797,291.8365,0.00010168,1.33e-05,0.0,0 STARLINK-3207,1 49756U 21115AJ  22203.09716961  .00001330  00000-0  10168-3 0  9995,2 49756  53.2154 334.4284 0001595  68.2797 291.8365 15.08833209 35405,6917.901,95.438,540.87,538.663,0.0
49756.0,STARLINK-3207,PAYLOAD,2022-07-22 13:27:36,15.08857018,0.0001504,53.2159,332.3475,56.2592,303.8544,0.00082068,0.00012803,0.0,0 STARLINK-3207,1 49756U 21115AJ  22203.56084458  .00012803  00000-0  82068-3 0  9991,2 49756  53.2159 332.3475 0001504  56.2592 303.8544 15.08857018 35473,6917.828,95.436,540.734,538.653,0.0
49756.0,STARLINK-3207,PAYLOAD,2022-07-23 02:10:41,15.08855068,0.0001372,53.2144,329.9699,49.6252,310.4859,0.00043905,6.709e-05,0.0,0 STARLINK-3207,1 49756U 21115AJ  22204.09076178  .00006709  00000-0  43905-3 0  9995,2 49756  53.2144 329.9699 0001372  49.6252 310.4859 15.08855068 36667,6917.834,95.437,540.648,538.75,0.0
49756.0,STARLINK-3207,PAYLOAD,2022-07-23 13:18:23,15.08841574,0.0001385,53.2175,327.8852,72.2928,287.8215,0.00011056,1.472e-05,0.0,0 STARLINK-3207,1 49756U 21115AJ  22204.55444341  .00001472  00000-0  11056-3 0  9991,2 49756  53.2175 327.8852 0001385  72.2928 287.8215 15.08841574 35620,6917.876,95.437,540.6990000000002,538.7819999999998,0.0
